STARLINK-11204 [DTC]    
1 60931U 24155H   24273.88054501  .00003644  00000+0  26240-4 0  9999
2 60931  53.1550  53.6395 0000465  54.3074 305.7990 15.76734565  5815
STARLINK-11246 [DTC]    
1 60932U 24155J   24273.74889592  .00001243  00000+0  11593-4 0  9999
2 60932  53.1537  54.2377 0000864 143.6162 216.4918 15.76722619  5793
STARLINK-11207 [DTC]    
1 60933U 24155K   24273.80739841 -.00002702  00000+0 -12516-4 0  9997
2 60933  53.1549  53.8913 0001297  52.6455 307.4683 15.76725008  5800
STARLINK-11237 [DTC]    
1 60934U 24155L   24273.80250883 -.00006596  00000+0 -36332-4 0  9999
2 60934  53.1550  53.8588 0001295  58.6341 301.4807 15.76728122  5812
STARLINK-11253 [DTC]    
1 60935U 24155M   24274.25001157  .00050899  00000+0  42338-3 0  9993
2 60935  53.1585  51.7918 0001316  84.6086 213.7097 15.69653929  5869
STARLINK-11241 [DTC]    
1 60936U 24155N   24273.91667824  .00054794  00000+0  45489-3 0  9993
2 60936  53.1578  53.3806 0000575 115.6152 125.6717 15.69670484  5855
STARLINK-32259          
1 60937U 24155P   24273.91667824  .00054792  00000+0  13714-2 0  9997
2 60937  53.1591  55.1481 0001286  78.1861   8.9746 15.39587725  5790
STARLINK-32262          
1 60938U 24155Q   24274.26880772  .00056022  12755-4  10000-3 0  9995
2 60938  53.1701  48.6995 0001153  54.9496   9.3258 16.02141562  5968
STARLINK-32258          
1 60939U 24155R   24273.91667824  .00035903  00000+0  65094-3 0  9991
2 60939  53.1588  55.0594 0001331  73.0266  59.1222 15.49294878  5743
STARLINK-32251          
1 60940U 24155S   24273.91667824 -.01502719  00000+0 -32236-1 0  9990
2 60940  53.1591  55.0527 0001129  56.2989  78.9062 15.47113066  5686
STARLINK-32224          
1 60941U 24155T   24273.91667824  .00016329  00000+0  30111-3 0  9997
2 60941  53.1589  55.0313 0001067  82.6595  62.9074 15.49301589  5737
STARLINK-32184          
1 60942U 24155U   24274.25001157 -.01482940  00000+0 -38640-1 0  9999
2 60942  53.1591  53.5249 0001090  87.8641  73.7262 15.41392800  5790
STARLINK-32288          
1 60943U 24155V   24273.91667824  .00051251  00000+0  92409-3 0  9990
2 60943  53.1589  55.0396 0001140  71.8242  69.9050 15.49290878  5741
STARLINK-32276          
1 60944U 24155W   24273.91667824  .00021915  00000+0  40110-3 0  9997
2 60944  53.1589  55.0356 0001052  83.6931  59.9570 15.49300011  5844
