[
    {
    "OBJECT_NAME": "STARLINK-11204 [DTC]",
    "OBJECT_ID": "2024-155H",
    "EPOCH": "2024-09-29T21:07:59.088864",
    "MEAN_MOTION": 15.76734565,
    "ECCENTRICITY": 0.0000465,
    "INCLINATION": 53.155,
    "RA_OF_ASC_NODE": 53.6395,
    "ARG_OF_PERICENTER": 54.3074,
    "MEAN_ANOMALY": 305.799,
    "EPHEMERIS_TYPE": 0,
    "CLASSIFICATION_TYPE": "U",
    "NORAD_CAT_ID": 60931,
    "ELEMENT_SET_NO": 999,
    "REV_AT_EPOCH": 581,
    "BSTAR": 0.00002624,
    "MEAN_MOTION_DOT": 0.00003644,
    "MEAN_MOTION_DDOT": 0
    },
    {
    "OBJECT_NAME": "STARLINK-11246 [DTC]",
    "OBJECT_ID": "2024-155J",
    "EPOCH": "2024-09-29T17:58:24.607488",
    "MEAN_MOTION": 15.76722619,
    "ECCENTRICITY": 0.0000864,
    "INCLINATION": 53.1537,
    "RA_OF_ASC_NODE": 54.2377,
    "ARG_OF_PERICENTER": 143.6162,
    "MEAN_ANOMALY": 216.4918,
    "EPHEMERIS_TYPE": 0,
    "CLASSIFICATION_TYPE": "U",
    "NORAD_CAT_ID": 60932,
    "ELEMENT_SET_NO": 999,
    "REV_AT_EPOCH": 579,
    "BSTAR": 0.000011593,
    "MEAN_MOTION_DOT": 0.00001243,
    "MEAN_MOTION_DDOT": 0
    },
    {
    "OBJECT_NAME": "STARLINK-11207 [DTC]",
    "OBJECT_ID": "2024-155K",
    "EPOCH": "2024-09-29T19:22:39.222624",
    "MEAN_MOTION": 15.76725008,
    "ECCENTRICITY": 0.0001297,
    "INCLINATION": 53.1549,
    "RA_OF_ASC_NODE": 53.8913,
    "ARG_OF_PERICENTER": 52.6455,
    "MEAN_ANOMALY": 307.4683,
    "EPHEMERIS_TYPE": 0,
    "CLASSIFICATION_TYPE": "U",
    "NORAD_CAT_ID": 60933,
    "ELEMENT_SET_NO": 999,
    "REV_AT_EPOCH": 580,
    "BSTAR": -0.000012516,
    "MEAN_MOTION_DOT": -0.00002702,
    "MEAN_MOTION_DDOT": 0
    },
    {
    "OBJECT_NAME": "STARLINK-11237 [DTC]",
    "OBJECT_ID": "2024-155L",
    "EPOCH": "2024-09-29T19:15:36.762912",
    "MEAN_MOTION": 15.76728122,
    "ECCENTRICITY": 0.0001295,
    "INCLINATION": 53.155,
    "RA_OF_ASC_NODE": 53.8588,
    "ARG_OF_PERICENTER": 58.6341,
    "MEAN_ANOMALY": 301.4807,
    "EPHEMERIS_TYPE": 0,
    "CLASSIFICATION_TYPE": "U",
    "NORAD_CAT_ID": 60934,
    "ELEMENT_SET_NO": 999,
    "REV_AT_EPOCH": 581,
    "BSTAR": -0.000036332,
    "MEAN_MOTION_DOT": -0.00006596,
    "MEAN_MOTION_DDOT": 0
    },
    {
    "OBJECT_NAME": "STARLINK-11253 [DTC]",
    "OBJECT_ID": "2024-155M",
    "EPOCH": "2024-09-30T06:00:00.999648",
    "MEAN_MOTION": 15.69653929,
    "ECCENTRICITY": 0.0001316,
    "INCLINATION": 53.1585,
    "RA_OF_ASC_NODE": 51.7918,
    "ARG_OF_PERICENTER": 84.6086,
    "MEAN_ANOMALY": 213.7097,
    "EPHEMERIS_TYPE": 0,
    "CLASSIFICATION_TYPE": "U",
    "NORAD_CAT_ID": 60935,
    "ELEMENT_SET_NO": 999,
    "REV_AT_EPOCH": 586,
    "BSTAR": 0.00042338,
    "MEAN_MOTION_DOT": 0.00050899,
    "MEAN_MOTION_DDOT": 0
    },
    {
    "OBJECT_NAME": "STARLINK-11241 [DTC]",
    "OBJECT_ID": "2024-155N",
    "EPOCH": "2024-09-29T22:00:00.999936",
    "MEAN_MOTION": 15.69670484,
    "ECCENTRICITY": 0.0000575,
    "INCLINATION": 53.1578,
    "RA_OF_ASC_NODE": 53.3806,
    "ARG_OF_PERICENTER": 115.6152,
    "MEAN_ANOMALY": 125.6717,
    "EPHEMERIS_TYPE": 0,
    "CLASSIFICATION_TYPE": "U",
    "NORAD_CAT_ID": 60936,
    "ELEMENT_SET_NO": 999,
    "REV_AT_EPOCH": 585,
    "BSTAR": 0.00045489,
    "MEAN_MOTION_DOT": 0.00054794,
    "MEAN_MOTION_DDOT": 0
    },
    {
    "OBJECT_NAME": "STARLINK-32259",
    "OBJECT_ID": "2024-155P",
    "EPOCH": "2024-09-29T22:00:00.999936",
    "MEAN_MOTION": 15.39587725,
    "ECCENTRICITY": 0.0001286,
    "INCLINATION": 53.1591,
    "RA_OF_ASC_NODE": 55.1481,
    "ARG_OF_PERICENTER": 78.1861,
    "MEAN_ANOMALY": 8.9746,
    "EPHEMERIS_TYPE": 0,
    "CLASSIFICATION_TYPE": "U",
    "NORAD_CAT_ID": 60937,
    "ELEMENT_SET_NO": 999,
    "REV_AT_EPOCH": 579,
    "BSTAR": 0.0013714,
    "MEAN_MOTION_DOT": 0.00054792,
    "MEAN_MOTION_DDOT": 0
    },
    {
    "OBJECT_NAME": "STARLINK-32262",
    "OBJECT_ID": "2024-155Q",
    "EPOCH": "2024-09-30T06:27:04.987008",
    "MEAN_MOTION": 16.02141562,
    "ECCENTRICITY": 0.0001153,
    "INCLINATION": 53.1701,
    "RA_OF_ASC_NODE": 48.6995,
    "ARG_OF_PERICENTER": 54.9496,
    "MEAN_ANOMALY": 9.3258,
    "EPHEMERIS_TYPE": 0,
    "CLASSIFICATION_TYPE": "U",
    "NORAD_CAT_ID": 60938,
    "ELEMENT_SET_NO": 999,
    "REV_AT_EPOCH": 596,
    "BSTAR": 0.0001,
    "MEAN_MOTION_DOT": 0.00056022,
    "MEAN_MOTION_DDOT": 0.000012755
    },
    {
    "OBJECT_NAME": "STARLINK-32258",
    "OBJECT_ID": "2024-155R",
    "EPOCH": "2024-09-29T22:00:00.999936",
    "MEAN_MOTION": 15.49294878,
    "ECCENTRICITY": 0.0001331,
    "INCLINATION": 53.1588,
    "RA_OF_ASC_NODE": 55.0594,
    "ARG_OF_PERICENTER": 73.0266,
    "MEAN_ANOMALY": 59.1222,
    "EPHEMERIS_TYPE": 0,
    "CLASSIFICATION_TYPE": "U",
    "NORAD_CAT_ID": 60939,
    "ELEMENT_SET_NO": 999,
    "REV_AT_EPOCH": 574,
    "BSTAR": 0.00065094,
    "MEAN_MOTION_DOT": 0.00035903,
    "MEAN_MOTION_DDOT": 0
    },
    {
    "OBJECT_NAME": "STARLINK-32251",
    "OBJECT_ID": "2024-155S",
    "EPOCH": "2024-09-29T22:00:00.999936",
    "MEAN_MOTION": 15.47113066,
    "ECCENTRICITY": 0.0001129,
    "INCLINATION": 53.1591,
    "RA_OF_ASC_NODE": 55.0527,
    "ARG_OF_PERICENTER": 56.2989,
    "MEAN_ANOMALY": 78.9062,
    "EPHEMERIS_TYPE": 0,
    "CLASSIFICATION_TYPE": "U",
    "NORAD_CAT_ID": 60940,
    "ELEMENT_SET_NO": 999,
    "REV_AT_EPOCH": 568,
    "BSTAR": -0.032236,
    "MEAN_MOTION_DOT": -0.01502719,
    "MEAN_MOTION_DDOT": 0
    },
    {
    "OBJECT_NAME": "STARLINK-32224",
    "OBJECT_ID": "2024-155T",
    "EPOCH": "2024-09-29T22:00:00.999936",
    "MEAN_MOTION": 15.49301589,
    "ECCENTRICITY": 0.0001067,
    "INCLINATION": 53.1589,
    "RA_OF_ASC_NODE": 55.0313,
    "ARG_OF_PERICENTER": 82.6595,
    "MEAN_ANOMALY": 62.9074,
    "EPHEMERIS_TYPE": 0,
    "CLASSIFICATION_TYPE": "U",
    "NORAD_CAT_ID": 60941,
    "ELEMENT_SET_NO": 999,
    "REV_AT_EPOCH": 573,
    "BSTAR": 0.00030111,
    "MEAN_MOTION_DOT": 0.00016329,
    "MEAN_MOTION_DDOT": 0
    },
    {
    "OBJECT_NAME": "STARLINK-32184",
    "OBJECT_ID": "2024-155U",
    "EPOCH": "2024-09-30T06:00:00.999648",
    "MEAN_MOTION": 15.413928,
    "ECCENTRICITY": 0.000109,
    "INCLINATION": 53.1591,
    "RA_OF_ASC_NODE": 53.5249,
    "ARG_OF_PERICENTER": 87.8641,
    "MEAN_ANOMALY": 73.7262,
    "EPHEMERIS_TYPE": 0,
    "CLASSIFICATION_TYPE": "U",
    "NORAD_CAT_ID": 60942,
    "ELEMENT_SET_NO": 999,
    "REV_AT_EPOCH": 579,
    "BSTAR": -0.03864,
    "MEAN_MOTION_DOT": -0.0148294,
    "MEAN_MOTION_DDOT": 0
    },
    {
    "OBJECT_NAME": "STARLINK-32288",
    "OBJECT_ID": "2024-155V",
    "EPOCH": "2024-09-29T22:00:00.999936",
    "MEAN_MOTION": 15.49290878,
    "ECCENTRICITY": 0.000114,
    "INCLINATION": 53.1589,
    "RA_OF_ASC_NODE": 55.0396,
    "ARG_OF_PERICENTER": 71.8242,
    "MEAN_ANOMALY": 69.905,
    "EPHEMERIS_TYPE": 0,
    "CLASSIFICATION_TYPE": "U",
    "NORAD_CAT_ID": 60943,
    "ELEMENT_SET_NO": 999,
    "REV_AT_EPOCH": 574,
    "BSTAR": 0.00092409,
    "MEAN_MOTION_DOT": 0.00051251,
    "MEAN_MOTION_DDOT": 0
    },
    {
    "OBJECT_NAME": "STARLINK-32276",
    "OBJECT_ID": "2024-155W",
    "EPOCH": "2024-09-29T22:00:00.999936",
    "MEAN_MOTION": 15.49300011,
    "ECCENTRICITY": 0.0001052,
    "INCLINATION": 53.1589,
    "RA_OF_ASC_NODE": 55.0356,
    "ARG_OF_PERICENTER": 83.6931,
    "MEAN_ANOMALY": 59.957,
    "EPHEMERIS_TYPE": 0,
    "CLASSIFICATION_TYPE": "U",
    "NORAD_CAT_ID": 60944,
    "ELEMENT_SET_NO": 999,
    "REV_AT_EPOCH": 584,
    "BSTAR": 0.0004011,
    "MEAN_MOTION_DOT": 0.00021915,
    "MEAN_MOTION_DDOT": 0
    }
    ]
